{
  "type": "FeatureCollection",
  "features": [
    {
      "type": "Feature",
      "properties": {
        "norad_id": 64751,
        "name": "PROGRESS-MS 31",
        "group": "stations",
        "lat": 24.42268188303048,
        "lon": -84.5818980356092,
        "alt_km": 415.81360027693245,
        "timestamp": "2025-12-17T23:38:05.646908+00:00",
        "meta_object_name": "PROGRESS-MS 31",
        "meta_object_id": "2025-146A",
        "meta_epoch": "2025-12-17T13:42:43.375968",
        "meta_mean_motion": 15.49636687,
        "meta_eccentricity": 0.00031828,
        "meta_inclination": 51.631,
        "meta_ra_of_asc_node": 118.5527,
        "meta_arg_of_pericenter": 262.6214,
        "meta_mean_anomaly": 97.4413,
        "meta_ephemeris_type": 0,
        "meta_classification_type": "U",
        "meta_norad_cat_id": 64751,
        "meta_element_set_no": 999,
        "meta_rev_at_epoch": 675,
        "meta_bstar": 0.00014273627,
        "meta_mean_motion_dot": 7.597e-05,
        "meta_mean_motion_ddot": 0,
        "tle_line1": "1 64751U 25146A   25351.57133537  .00007597  00000+0  14274-3 0  9999",
        "tle_line2": "2 64751  51.6310 118.5527 0003182 262.6214  97.4413 15.49636687  6758"
      },
      "geometry": {
        "type": "Point",
        "coordinates": [
          -84.5818980356092,
          24.42268188303048
        ]
      }
    },
    {
      "type": "Feature",
      "properties": {
        "norad_id": 64786,
        "name": "TIANZHOU-9",
        "group": "stations",
        "lat": 40.29724909696355,
        "lon": 91.07146238379971,
        "alt_km": 378.1246272295084,
        "timestamp": "2025-12-17T23:38:05.646919+00:00",
        "meta_object_name": "TIANZHOU-9",
        "meta_object_id": "2025-149A",
        "meta_epoch": "2025-12-17T10:54:09.513792",
        "meta_mean_motion": 15.59380496,
        "meta_eccentricity": 0.00077365,
        "meta_inclination": 41.4681,
        "meta_ra_of_asc_node": 348.0821,
        "meta_arg_of_pericenter": 71.5092,
        "meta_mean_anomaly": 288.6587,
        "meta_ephemeris_type": 0,
        "meta_classification_type": "U",
        "meta_norad_cat_id": 64786,
        "meta_element_set_no": 999,
        "meta_rev_at_epoch": 25530,
        "meta_bstar": 0.00026147589,
        "meta_mean_motion_dot": 0.00020985,
        "meta_mean_motion_ddot": 0,
        "tle_line1": "1 64786U 25149A   25351.45427678  .00020985  00000+0  26148-3 0  9998",
        "tle_line2": "2 64786  41.4681 348.0821 0007736  71.5092 288.6587 15.59380496255309"
      },
      "geometry": {
        "type": "Point",
        "coordinates": [
          91.07146238379971,
          40.29724909696355
        ]
      }
    },
    {
      "type": "Feature",
      "properties": {
        "norad_id": 65077,
        "name": "CREW DRAGON 11",
        "group": "stations",
        "lat": 24.422680795474765,
        "lon": -84.58189692302281,
        "alt_km": 415.81360040205254,
        "timestamp": "2025-12-17T23:38:05.646931+00:00",
        "meta_object_name": "CREW DRAGON 11",
        "meta_object_id": "2025-166A",
        "meta_epoch": "2025-12-17T13:42:43.375968",
        "meta_mean_motion": 15.49636687,
        "meta_eccentricity": 0.00031828,
        "meta_inclination": 51.631,
        "meta_ra_of_asc_node": 118.5527,
        "meta_arg_of_pericenter": 262.6214,
        "meta_mean_anomaly": 97.4413,
        "meta_ephemeris_type": 0,
        "meta_classification_type": "U",
        "meta_norad_cat_id": 65077,
        "meta_element_set_no": 999,
        "meta_rev_at_epoch": 214,
        "meta_bstar": 0.00014273627,
        "meta_mean_motion_dot": 7.597e-05,
        "meta_mean_motion_ddot": 0,
        "tle_line1": "1 65077U 25166A   25351.57133537  .00007597  00000+0  14274-3 0  9993",
        "tle_line2": "2 65077  51.6310 118.5527 0003182 262.6214  97.4413 15.49636687  2149"
      },
      "geometry": {
        "type": "Point",
        "coordinates": [
          -84.58189692302281,
          24.422680795474765
        ]
      }
    },
    {
      "type": "Feature",
      "properties": {
        "norad_id": 65304,
        "name": "DRAGON CRS-33",
        "group": "stations",
        "lat": 24.42268032262444,
        "lon": -84.5818964392896,
        "alt_km": 415.8136004564494,
        "timestamp": "2025-12-17T23:38:05.646941+00:00",
        "meta_object_name": "DRAGON CRS-33",
        "meta_object_id": "2025-186A",
        "meta_epoch": "2025-12-17T13:42:43.375968",
        "meta_mean_motion": 15.49636687,
        "meta_eccentricity": 0.00031828,
        "meta_inclination": 51.631,
        "meta_ra_of_asc_node": 118.5527,
        "meta_arg_of_pericenter": 262.6214,
        "meta_mean_anomaly": 97.4413,
        "meta_ephemeris_type": 0,
        "meta_classification_type": "U",
        "meta_norad_cat_id": 65304,
        "meta_element_set_no": 999,
        "meta_rev_at_epoch": 11,
        "meta_bstar": 0.00014273627,
        "meta_mean_motion_dot": 7.597e-05,
        "meta_mean_motion_ddot": 0,
        "tle_line1": "1 65304U 25186A   25351.57133537  .00007597  00000+0  14274-3 0  9998",
        "tle_line2": "2 65304  51.6310 118.5527 0003182 262.6214  97.4413 15.49636687   117"
      },
      "geometry": {
        "type": "Point",
        "coordinates": [
          -84.5818964392896,
          24.42268032262444
        ]
      }
    },
    {
      "type": "Feature",
      "properties": {
        "norad_id": 65586,
        "name": "PROGRESS-MS 32",
        "group": "stations",
        "lat": 24.42267984977411,
        "lon": -84.58189595555638,
        "alt_km": 415.8136005108481,
        "timestamp": "2025-12-17T23:38:05.646951+00:00",
        "meta_object_name": "PROGRESS-MS 32",
        "meta_object_id": "2025-204A",
        "meta_epoch": "2025-12-17T13:42:43.375968",
        "meta_mean_motion": 15.49636687,
        "meta_eccentricity": 0.00031828,
        "meta_inclination": 51.631,
        "meta_ra_of_asc_node": 118.5527,
        "meta_arg_of_pericenter": 262.6214,
        "meta_mean_anomaly": 97.4413,
        "meta_ephemeris_type": 0,
        "meta_classification_type": "U",
        "meta_norad_cat_id": 65586,
        "meta_element_set_no": 999,
        "meta_rev_at_epoch": 27,
        "meta_bstar": 0.00014273627,
        "meta_mean_motion_dot": 7.597e-05,
        "meta_mean_motion_ddot": 0,
        "tle_line1": "1 65586U 25204A   25351.57133537  .00007597  00000+0  14274-3 0  9991",
        "tle_line2": "2 65586  51.6310 118.5527 0003182 262.6214  97.4413 15.49636687   276"
      },
      "geometry": {
        "type": "Point",
        "coordinates": [
          -84.58189595555638,
          24.42267984977411
        ]
      }
    },
    {
      "type": "Feature",
      "properties": {
        "norad_id": 65616,
        "name": "CYGNUS NG-23",
        "group": "stations",
        "lat": 24.422679376923803,
        "lon": -84.58189547182315,
        "alt_km": 415.81360056524954,
        "timestamp": "2025-12-17T23:38:05.646961+00:00",
        "meta_object_name": "CYGNUS NG-23",
        "meta_object_id": "2025-208A",
        "meta_epoch": "2025-12-17T13:42:43.375968",
        "meta_mean_motion": 15.49636687,
        "meta_eccentricity": 0.00031828,
        "meta_inclination": 51.631,
        "meta_ra_of_asc_node": 118.5527,
        "meta_arg_of_pericenter": 262.6214,
        "meta_mean_anomaly": 97.4413,
        "meta_ephemeris_type": 0,
        "meta_classification_type": "U",
        "meta_norad_cat_id": 65616,
        "meta_element_set_no": 999,
        "meta_rev_at_epoch": 22,
        "meta_bstar": 0.00014273627,
        "meta_mean_motion_dot": 7.597e-05,
        "meta_mean_motion_ddot": 0,
        "tle_line1": "1 65616U 25208A   25351.57133537  .00007597  00000+0  14274-3 0  9999",
        "tle_line2": "2 65616  51.6310 118.5527 0003182 262.6214  97.4413 15.49636687   225"
      },
      "geometry": {
        "type": "Point",
        "coordinates": [
          -84.58189547182315,
          24.422679376923803
        ]
      }
    },
    {
      "type": "Feature",
      "properties": {
        "norad_id": 65729,
        "name": "DRAGONFLY",
        "group": "stations",
        "lat": -19.746282825249583,
        "lon": -54.60434337503668,
        "alt_km": 352.5437354855885,
        "timestamp": "2025-12-17T23:38:05.646971+00:00",
        "meta_object_name": "DRAGONFLY",
        "meta_object_id": "1998-067XH",
        "meta_epoch": "2025-12-17T13:37:12.344736",
        "meta_mean_motion": 15.73531298,
        "meta_eccentricity": 0.00072061,
        "meta_inclination": 51.6243,
        "meta_ra_of_asc_node": 111.0116,
        "meta_arg_of_pericenter": 308.514,
        "meta_mean_anomaly": 51.5212,
        "meta_ephemeris_type": 0,
        "meta_classification_type": "U",
        "meta_norad_cat_id": 65729,
        "meta_element_set_no": 999,
        "meta_rev_at_epoch": 1392,
        "meta_bstar": 0.0011077639,
        "meta_mean_motion_dot": 0.00160588,
        "meta_mean_motion_ddot": 0,
        "tle_line1": "1 65729U 98067XH  25351.56750399  .00160588  00000+0  11078-2 0  9995",
        "tle_line2": "2 65729  51.6243 111.0116 0007206 308.5140  51.5212 15.73531298 13924"
      },
      "geometry": {
        "type": "Point",
        "coordinates": [
          -54.60434337503668,
          -19.746282825249583
        ]
      }
    }
  ]
}